{
    "links": {
        "self": "http://www.neowsapp.com/rest/v1/neo/3892009?api_key=iIulBulltgU6a56xZRHN4H3l9WmuAYTsLGpBGhQ2"
    },
    "id": "3892009",
    "neo_reference_id": "3892009",
    "name": "(2019 UD13)",
    "designation": "2019 UD13",
    "nasa_jpl_url": "http://ssd.jpl.nasa.gov/sbdb.cgi?sstr=3892009",
    "absolute_magnitude_h": 23.5,
    "estimated_diameter": {
        "kilometers": {
            "estimated_diameter_min": 0.0530340723,
            "estimated_diameter_max": 0.1185877909
        },
        "meters": {
            "estimated_diameter_min": 53.0340723319,
            "estimated_diameter_max": 118.5877908577
        },
        "miles": {
            "estimated_diameter_min": 0.0329538346,
            "estimated_diameter_max": 0.0736870142
        },
        "feet": {
            "estimated_diameter_min": 173.9963058693,
            "estimated_diameter_max": 389.0675677576
        }
    },
    "is_potentially_hazardous_asteroid": false,
    "close_approach_data": [
        {
            "close_approach_date": "2012-10-21",
            "close_approach_date_full": "2012-Oct-21 19:41",
            "epoch_date_close_approach": 1350848460000,
            "relative_velocity": {
                "kilometers_per_second": "24.1882903264",
                "kilometers_per_hour": "87077.8451752002",
                "miles_per_hour": "54106.7866312237"
            },
            "miss_distance": {
                "astronomical": "0.316936176",
                "lunar": "123.288172464",
                "kilometers": "47412976.85554512",
                "miles": "29461057.690637856"
            },
            "orbiting_body": "Earth"
        },
        {
            "close_approach_date": "2016-04-29",
            "close_approach_date_full": "2016-Apr-29 01:34",
            "epoch_date_close_approach": 1461893640000,
            "relative_velocity": {
                "kilometers_per_second": "20.5040553673",
                "kilometers_per_hour": "73814.5993221896",
                "miles_per_hour": "45865.5214510572"
            },
            "miss_distance": {
                "astronomical": "0.4839990842",
                "lunar": "188.2756437538",
                "kilometers": "72405232.078270654",
                "miles": "44990524.9750728652"
            },
            "orbiting_body": "Earth"
        },
        {
            "close_approach_date": "2019-11-01",
            "close_approach_date_full": "2019-Nov-01 19:43",
            "epoch_date_close_approach": 1572637380000,
            "relative_velocity": {
                "kilometers_per_second": "23.2089529745",
                "kilometers_per_hour": "83552.2307082439",
                "miles_per_hour": "51916.1069086863"
            },
            "miss_distance": {
                "astronomical": "0.0392197906",
                "lunar": "15.2564985434",
                "kilometers": "5867197.135606022",
                "miles": "3645707.2463742236"
            },
            "orbiting_body": "Earth"
        },
        {
            "close_approach_date": "2026-11-11",
            "close_approach_date_full": "2026-Nov-11 21:04",
            "epoch_date_close_approach": 1794431040000,
            "relative_velocity": {
                "kilometers_per_second": "25.3840690807",
                "kilometers_per_hour": "91382.6486903425",
                "miles_per_hour": "56781.6241265076"
            },
            "miss_distance": {
                "astronomical": "0.311646485",
                "lunar": "121.230482665",
                "kilometers": "46621650.34898695",
                "miles": "28969350.20024191"
            },
            "orbiting_body": "Earth"
        }
    ],
    "orbital_data": {
        "orbit_id": "10",
        "orbit_determination_date": "2019-12-19 04:56:55",
        "first_observation_date": "2019-10-28",
        "last_observation_date": "2019-11-06",
        "data_arc_in_days": 9,
        "observations_used": 66,
        "orbit_uncertainty": "8",
        "minimum_orbit_intersection": ".0391681",
        "jupiter_tisserand_invariant": "4.834",
        "epoch_osculation": "2458787.5",
        "eccentricity": ".1831999214735353",
        "semi_major_axis": "1.257761900569631",
        "inclination": "43.85740792005121",
        "ascending_node_longitude": "39.07382969722416",
        "orbital_period": "515.2239936577081",
        "perihelion_distance": "1.02734001915287",
        "perihelion_argument": "346.5656171250357",
        "aphelion_distance": "1.488183781986392",
        "perihelion_time": "2458776.395981676486",
        "mean_anomaly": "7.75865768223668",
        "mean_motion": ".6987252232650639",
        "equinox": "J2000",
        "orbit_class": {
            "orbit_class_type": "AMO",
            "orbit_class_description": "Near-Earth asteroid orbits similar to that of 1221 Amor",
            "orbit_class_range": "1.017 AU < q (perihelion) < 1.3 AU"
        }
    },
    "is_sentry_object": false
}